{
  "norad_id": 68878,
  "name": "KUIPER-00483",
  "history": [
    {
      "epoch": "2026-05-02T10:00:03.000096Z",
      "apogee_km": 466.1509362460265,
      "perigee_km": 451.3695643908377,
      "latitude_deg": 40.84497681245477,
      "longitude_deg": -129.0336444475281,
      "height_km": 455.18749561798376,
      "semi_major_axis_km": 6836.897250318431,
      "eccentricity": 0.001081,
      "inclination_deg": 51.8716,
      "raan_deg": 103.7541,
      "arg_perigee_deg": 136.9912,
      "mean_anomaly_deg": 347.0248,
      "mean_motion_rev_day": 15.35727575
    },
    {
      "epoch": "2026-05-03T20:00:01.999008Z",
      "apogee_km": 466.19009254837056,
      "perigee_km": 451.1122399265514,
      "latitude_deg": 31.3610610478005,
      "longitude_deg": -36.41450741142872,
      "height_km": 461.9858640625871,
      "semi_major_axis_km": 6836.788166237461,
      "eccentricity": 0.0011027,
      "inclination_deg": 51.8713,
      "raan_deg": 96.9184,
      "arg_perigee_deg": 143.2111,
      "mean_anomaly_deg": 258.1876,
      "mean_motion_rev_day": 15.3576433
    }
  ]
}